{
  "type": "FeatureCollection",
  "features": [
    {
      "type": "Feature",
      "properties": {
        "norad_id": 43286,
        "name": "IRNSS-1I",
        "group": "gnss",
        "lat": 11.056975902176681,
        "lon": -123.31336079568042,
        "alt_km": 35700.30223942122,
        "timestamp": "2025-12-02T07:10:09.357500+00:00",
        "meta_object_name": "IRNSS-1I",
        "meta_object_id": "2018-035A",
        "meta_epoch": "2025-11-30T20:57:14.647680",
        "meta_mean_motion": 1.00277145,
        "meta_eccentricity": 0.00215478,
        "meta_inclination": 29.121,
        "meta_ra_of_asc_node": 77.2845,
        "meta_arg_of_pericenter": 181.4747,
        "meta_mean_anomaly": 180.6764,
        "meta_ephemeris_type": 0,
        "meta_classification_type": "U",
        "meta_norad_cat_id": 43286,
        "meta_element_set_no": 999,
        "meta_rev_at_epoch": 2809,
        "meta_bstar": 0,
        "meta_mean_motion_dot": 9.8e-07,
        "meta_mean_motion_ddot": 0,
        "tle_line1": "1 43286U 18035A   25334.87308620  .00000098  00000+0  00000+0 0  9996",
        "tle_line2": "2 43286  29.1210  77.2845 0021547 181.4747 180.6764  1.00277145 28092"
      },
      "geometry": {
        "type": "Point",
        "coordinates": [
          -123.31336079568042,
          11.056975902176681
        ]
      }
    },
    {
      "type": "Feature",
      "properties": {
        "norad_id": 43508,
        "name": "COSMOS 2527 (756)",
        "group": "gnss",
        "lat": -46.644163016547495,
        "lon": -70.6383351813955,
        "alt_km": 19113.897211934996,
        "timestamp": "2025-12-02T07:10:09.357518+00:00",
        "meta_object_name": "COSMOS 2527 (756)",
        "meta_object_id": "2018-053A",
        "meta_epoch": "2025-11-28T17:02:34.696320",
        "meta_mean_motion": 2.1310209,
        "meta_eccentricity": 0.00085767,
        "meta_inclination": 65.4651,
        "meta_ra_of_asc_node": 80.6007,
        "meta_arg_of_pericenter": 223.0414,
        "meta_mean_anomaly": 136.8979,
        "meta_ephemeris_type": 0,
        "meta_classification_type": "U",
        "meta_norad_cat_id": 43508,
        "meta_element_set_no": 999,
        "meta_rev_at_epoch": 5800,
        "meta_bstar": 0,
        "meta_mean_motion_dot": 1.2e-07,
        "meta_mean_motion_ddot": 0,
        "tle_line1": "1 43508U 18053A   25332.71012380  .00000012  00000+0  00000+0 0  9995",
        "tle_line2": "2 43508  65.4651  80.6007 0008576 223.0414 136.8979  2.13102090 58006"
      },
      "geometry": {
        "type": "Point",
        "coordinates": [
          -70.6383351813955,
          -46.644163016547495
        ]
      }
    },
    {
      "type": "Feature",
      "properties": {
        "norad_id": 43539,
        "name": "BEIDOU-2 IGSO-7 (C16)",
        "group": "gnss",
        "lat": 42.47256169448198,
        "lon": -54.89609534676639,
        "alt_km": 35919.426628927875,
        "timestamp": "2025-12-02T07:10:09.357536+00:00",
        "meta_object_name": "BEIDOU-2 IGSO-7 (C16)",
        "meta_object_id": "2018-057A",
        "meta_epoch": "2025-12-01T10:54:56.772000",
        "meta_mean_motion": 1.00260153,
        "meta_eccentricity": 0.00924483,
        "meta_inclination": 55.1734,
        "meta_ra_of_asc_node": 164.7711,
        "meta_arg_of_pericenter": 235.1555,
        "meta_mean_anomaly": 305.8956,
        "meta_ephemeris_type": 0,
        "meta_classification_type": "U",
        "meta_norad_cat_id": 43539,
        "meta_element_set_no": 999,
        "meta_rev_at_epoch": 2714,
        "meta_bstar": 0,
        "meta_mean_motion_dot": -1.9e-07,
        "meta_mean_motion_ddot": 0,
        "tle_line1": "1 43539U 18057A   25335.45482375 -.00000019  00000+0  00000+0 0  9990",
        "tle_line2": "2 43539  55.1734 164.7711 0092448 235.1555 305.8956  1.00260153 27149"
      },
      "geometry": {
        "type": "Point",
        "coordinates": [
          -54.89609534676639,
          42.47256169448198
        ]
      }
    },
    {
      "type": "Feature",
      "properties": {
        "norad_id": 43564,
        "name": "GSAT0221 (GALILEO 25)",
        "group": "gnss",
        "lat": -16.913941329231417,
        "lon": 178.40559927510898,
        "alt_km": 23220.80618289455,
        "timestamp": "2025-12-02T07:10:09.357554+00:00",
        "meta_object_name": "GSAT0221 (GALILEO 25)",
        "meta_object_id": "2018-060A",
        "meta_epoch": "2025-12-01T09:15:23.303232",
        "meta_mean_motion": 1.70475711,
        "meta_eccentricity": 0.00066191,
        "meta_inclination": 57.2301,
        "meta_ra_of_asc_node": 347.1247,
        "meta_arg_of_pericenter": 279.777,
        "meta_mean_anomaly": 80.1905,
        "meta_ephemeris_type": 0,
        "meta_classification_type": "U",
        "meta_norad_cat_id": 43564,
        "meta_element_set_no": 999,
        "meta_rev_at_epoch": 4579,
        "meta_bstar": 0,
        "meta_mean_motion_dot": -5.9e-07,
        "meta_mean_motion_ddot": 0,
        "tle_line1": "1 43564U 18060A   25335.38568638 -.00000059  00000+0  00000+0 0  9995",
        "tle_line2": "2 43564  57.2301 347.1247 0006619 279.7770  80.1905  1.70475711 45792"
      },
      "geometry": {
        "type": "Point",
        "coordinates": [
          178.40559927510898,
          -16.913941329231417
        ]
      }
    },
    {
      "type": "Feature",
      "properties": {
        "norad_id": 43565,
        "name": "GSAT0222 (GALILEO 26)",
        "group": "gnss",
        "lat": 50.019651267748834,
        "lon": 37.30181291121351,
        "alt_km": 23233.951385828226,
        "timestamp": "2025-12-02T07:10:09.357572+00:00",
        "meta_object_name": "GSAT0222 (GALILEO 26)",
        "meta_object_id": "2018-060B",
        "meta_epoch": "2025-11-29T06:12:28.687968",
        "meta_mean_motion": 1.70475509,
        "meta_eccentricity": 0.00061732,
        "meta_inclination": 57.2346,
        "meta_ra_of_asc_node": 347.1853,
        "meta_arg_of_pericenter": 259.4518,
        "meta_mean_anomaly": 100.5223,
        "meta_ephemeris_type": 0,
        "meta_classification_type": "U",
        "meta_norad_cat_id": 43565,
        "meta_element_set_no": 999,
        "meta_rev_at_epoch": 4580,
        "meta_bstar": 0,
        "meta_mean_motion_dot": -5.5e-07,
        "meta_mean_motion_ddot": 0,
        "tle_line1": "1 43565U 18060B   25333.25866537 -.00000055  00000+0  00000+0 0  9995",
        "tle_line2": "2 43565  57.2346 347.1853 0006173 259.4518 100.5223  1.70475509 45802"
      },
      "geometry": {
        "type": "Point",
        "coordinates": [
          37.30181291121351,
          50.019651267748834
        ]
      }
    },
    {
      "type": "Feature",
      "properties": {
        "norad_id": 43566,
        "name": "GSAT0219 (GALILEO 23)",
        "group": "gnss",
        "lat": -52.195786578065615,
        "lon": -69.01757515442796,
        "alt_km": 23210.67218430456,
        "timestamp": "2025-12-02T07:10:09.357592+00:00",
        "meta_object_name": "GSAT0219 (GALILEO 23)",
        "meta_object_id": "2018-060C",
        "meta_epoch": "2025-11-30T01:35:38.037408",
        "meta_mean_motion": 1.70475682,
        "meta_eccentricity": 0.00057799,
        "meta_inclination": 57.2334,
        "meta_ra_of_asc_node": 347.165,
        "meta_arg_of_pericenter": 285.7575,
        "meta_mean_anomaly": 74.2225,
        "meta_ephemeris_type": 0,
        "meta_classification_type": "U",
        "meta_norad_cat_id": 43566,
        "meta_element_set_no": 999,
        "meta_rev_at_epoch": 4579,
        "meta_bstar": 0,
        "meta_mean_motion_dot": -5.6e-07,
        "meta_mean_motion_ddot": 0,
        "tle_line1": "1 43566U 18060C   25334.06641247 -.00000056  00000+0  00000+0 0  9996",
        "tle_line2": "2 43566  57.2334 347.1650 0005779 285.7575  74.2225  1.70475682 45790"
      },
      "geometry": {
        "type": "Point",
        "coordinates": [
          -69.01757515442796,
          -52.195786578065615
        ]
      }
    },
    {
      "type": "Feature",
      "properties": {
        "norad_id": 43567,
        "name": "GSAT0220 (GALILEO 24)",
        "group": "gnss",
        "lat": 21.33371870356924,
        "lon": 152.54229819419172,
        "alt_km": 23230.324298549258,
        "timestamp": "2025-12-02T07:10:09.357609+00:00",
        "meta_object_name": "GSAT0220 (GALILEO 24)",
        "meta_object_id": "2018-060D",
        "meta_epoch": "2025-11-30T20:58:25.885344",
        "meta_mean_motion": 1.70475446,
        "meta_eccentricity": 0.00061088,
        "meta_inclination": 57.233,
        "meta_ra_of_asc_node": 347.1438,
        "meta_arg_of_pericenter": 281.1334,
        "meta_mean_anomaly": 78.841,
        "meta_ephemeris_type": 0,
        "meta_classification_type": "U",
        "meta_norad_cat_id": 43567,
        "meta_element_set_no": 999,
        "meta_rev_at_epoch": 4579,
        "meta_bstar": 0,
        "meta_mean_motion_dot": -5.8e-07,
        "meta_mean_motion_ddot": 0,
        "tle_line1": "1 43567U 18060D   25334.87391071 -.00000058  00000+0  00000+0 0  9995",
        "tle_line2": "2 43567  57.2330 347.1438 0006108 281.1334  78.8410  1.70475446 45795"
      },
      "geometry": {
        "type": "Point",
        "coordinates": [
          152.54229819419172,
          21.33371870356924
        ]
      }
    }
  ]
}